{"type": "FeatureCollection", "features": [{"type": "Feature", "properties": {"norad_id": 25730, "name": "FENGYUN 1C", "group": "fengyun-1c-debris", "lat": -51.682440859572566, "lon": -135.89123465432976, "alt_km": 819.3544527405375, "timestamp": "2025-12-15T10:55:21.413693+00:00", "meta": {"OBJECT_NAME": "FENGYUN 1C", "OBJECT_ID": "1999-025A", "EPOCH": "2025-12-14T18:40:52.154688", "MEAN_MOTION": 14.26064484, "ECCENTRICITY": 0.00106187, "INCLINATION": 98.8842, "RA_OF_ASC_NODE": 54.8387, "ARG_OF_PERICENTER": 62.8936, "MEAN_ANOMALY": 297.3325, "EPHEMERIS_TYPE": 0, "CLASSIFICATION_TYPE": "U", "NORAD_CAT_ID": 25730, "ELEMENT_SET_NO": 999, "REV_AT_EPOCH": 37166, "BSTAR": 0.0011037302, "MEAN_MOTION_DOT": 2.594e-05, "MEAN_MOTION_DDOT": 0}, "tle": {"line1": "1 25730U 99025A   25348.77838142  .00002594  00000+0  11037-2 0  9997", "line2": "2 25730  98.8842  54.8387 0010618  62.8936 297.3325 14.26064484371666"}}, "geometry": {"type": "Point", "coordinates": [-135.89123465432976, -51.682440859572566]}}, {"type": "Feature", "properties": {"norad_id": 29733, "name": "FENGYUN 1C DEB", "group": "fengyun-1c-debris", "lat": 3.9990077886877087, "lon": 44.45523732279813, "alt_km": 1704.367090609222, "timestamp": "2025-12-15T10:55:21.413714+00:00", "meta": {"OBJECT_NAME": "FENGYUN 1C DEB", "OBJECT_ID": "1999-025X", "EPOCH": "2025-12-14T15:21:58.580640", "MEAN_MOTION": 12.96471575, "ECCENTRICITY": 0.05697837, "INCLINATION": 99.2245, "RA_OF_ASC_NODE": 44.4151, "ARG_OF_PERICENTER": 197.6259, "MEAN_ANOMALY": 323.9043, "EPHEMERIS_TYPE": 0, "CLASSIFICATION_TYPE": "U", "NORAD_CAT_ID": 29733, "ELEMENT_SET_NO": 999, "REV_AT_EPOCH": 89144, "BSTAR": 0.0023872635, "MEAN_MOTION_DOT": 1.408e-05, "MEAN_MOTION_DDOT": 0}, "tle": {"line1": "1 29733U 99025X   25348.64026135  .00001408  00000+0  23873-2 0  9995", "line2": "2 29733  99.2245  44.4151 0569783 197.6259 323.9043 12.96471575891440"}}, "geometry": {"type": "Point", "coordinates": [44.45523732279813, 3.9990077886877087]}}, {"type": "Feature", "properties": {"norad_id": 29734, "name": "FENGYUN 1C DEB", "group": "fengyun-1c-debris", "lat": 41.380709942406625, "lon": 107.09453298176894, "alt_km": 1593.9737135643336, "timestamp": "2025-12-15T10:55:21.413727+00:00", "meta": {"OBJECT_NAME": "FENGYUN 1C DEB", "OBJECT_ID": "1999-025Y", "EPOCH": "2025-12-14T19:40:39.679680", "MEAN_MOTION": 12.91320456, "ECCENTRICITY": 0.06153712, "INCLINATION": 99.1684, "RA_OF_ASC_NODE": 278.3839, "ARG_OF_PERICENTER": 7.0615, "MEAN_ANOMALY": 53.982, "EPHEMERIS_TYPE": 0, "CLASSIFICATION_TYPE": "U", "NORAD_CAT_ID": 29734, "ELEMENT_SET_NO": 999, "REV_AT_EPOCH": 88575, "BSTAR": 0.0066468005, "MEAN_MOTION_DOT": 4.108e-05, "MEAN_MOTION_DDOT": 0}, "tle": {"line1": "1 29734U 99025Y   25348.81990370  .00004108  00000+0  66468-2 0  9993", "line2": "2 29734  99.1684 278.3839 0615371   7.0615  53.9820 12.91320456885759"}}, "geometry": {"type": "Point", "coordinates": [107.09453298176894, 41.380709942406625]}}, {"type": "Feature", "properties": {"norad_id": 29735, "name": "FENGYUN 1C DEB", "group": "fengyun-1c-debris", "lat": -75.80697810674954, "lon": 43.09162923847265, "alt_km": 1331.283454677944, "timestamp": "2025-12-15T10:55:21.413738+00:00", "meta": {"OBJECT_NAME": "FENGYUN 1C DEB", "OBJECT_ID": "1999-025Z", "EPOCH": "2025-12-14T05:22:01.163712", "MEAN_MOTION": 12.75049614, "ECCENTRICITY": 0.06975026, "INCLINATION": 99.391, "RA_OF_ASC_NODE": 262.9327, "ARG_OF_PERICENTER": 171.994, "MEAN_ANOMALY": 189.3004, "EPHEMERIS_TYPE": 0, "CLASSIFICATION_TYPE": "U", "NORAD_CAT_ID": 29735, "ELEMENT_SET_NO": 999, "REV_AT_EPOCH": 87434, "BSTAR": 0.0017505554, "MEAN_MOTION_DOT": 9.88e-06, "MEAN_MOTION_DDOT": 0}, "tle": {"line1": "1 29735U 99025Z   25348.22362458  .00000988  00000+0  17506-2 0  9990", "line2": "2 29735  99.3910 262.9327 0697502 171.9940 189.3004 12.75049614874340"}}, "geometry": {"type": "Point", "coordinates": [43.09162923847265, -75.80697810674954]}}, {"type": "Feature", "properties": {"norad_id": 29736, "name": "FENGYUN 1C DEB", "group": "fengyun-1c-debris", "lat": -29.40187040492931, "lon": -17.025796825719777, "alt_km": 893.6055890549305, "timestamp": "2025-12-15T10:55:21.413750+00:00", "meta": {"OBJECT_NAME": "FENGYUN 1C DEB", "OBJECT_ID": "1999-025AA", "EPOCH": "2025-12-14T23:12:47.159136", "MEAN_MOTION": 12.57495477, "ECCENTRICITY": 0.07251274, "INCLINATION": 99.4035, "RA_OF_ASC_NODE": 167.9377, "ARG_OF_PERICENTER": 193.9162, "MEAN_ANOMALY": 325.8794, "EPHEMERIS_TYPE": 0, "CLASSIFICATION_TYPE": "U", "NORAD_CAT_ID": 29736, "ELEMENT_SET_NO": 999, "REV_AT_EPOCH": 86572, "BSTAR": 0.0022503668, "MEAN_MOTION_DOT": 9.94e-06, "MEAN_MOTION_DDOT": 0}, "tle": {"line1": "1 29736U 99025AA  25348.96721249  .00000994  00000+0  22504-2 0  9990", "line2": "2 29736  99.4035 167.9377 0725127 193.9162 325.8794 12.57495477865721"}}, "geometry": {"type": "Point", "coordinates": [-17.025796825719777, -29.40187040492931]}}, {"type": "Feature", "properties": {"norad_id": 29737, "name": "FENGYUN 1C DEB", "group": "fengyun-1c-debris", "lat": 13.520050560885325, "lon": -58.254826665589334, "alt_km": 1631.0620271314328, "timestamp": "2025-12-15T10:55:21.413760+00:00", "meta": {"OBJECT_NAME": "FENGYUN 1C DEB", "OBJECT_ID": "1999-025AB", "EPOCH": "2025-12-14T09:02:23.623584", "MEAN_MOTION": 12.65655912, "ECCENTRICITY": 0.06948124, "INCLINATION": 99.5804, "RA_OF_ASC_NODE": 303.1718, "ARG_OF_PERICENTER": 134.9546, "MEAN_ANOMALY": 14.5496, "EPHEMERIS_TYPE": 0, "CLASSIFICATION_TYPE": "U", "NORAD_CAT_ID": 29737, "ELEMENT_SET_NO": 999, "REV_AT_EPOCH": 86889, "BSTAR": 0.0026329917, "MEAN_MOTION_DOT": 1.249e-05, "MEAN_MOTION_DDOT": 0}, "tle": {"line1": "1 29737U 99025AB  25348.37666231  .00001249  00000+0  26330-2 0  9990", "line2": "2 29737  99.5804 303.1718 0694812 134.9546  14.5496 12.65655912868890"}}, "geometry": {"type": "Point", "coordinates": [-58.254826665589334, 13.520050560885325]}}, {"type": "Feature", "properties": {"norad_id": 29738, "name": "FENGYUN 1C DEB", "group": "fengyun-1c-debris", "lat": 12.738664294731146, "lon": 153.73941382708205, "alt_km": 1296.7631850993566, "timestamp": "2025-12-15T10:55:21.413771+00:00", "meta": {"OBJECT_NAME": "FENGYUN 1C DEB", "OBJECT_ID": "1999-025AC", "EPOCH": "2025-12-14T10:06:18.246528", "MEAN_MOTION": 12.61044553, "ECCENTRICITY": 0.0864576, "INCLINATION": 99.4091, "RA_OF_ASC_NODE": 155.042, "ARG_OF_PERICENTER": 290.8391, "MEAN_ANOMALY": 60.225, "EPHEMERIS_TYPE": 0, "CLASSIFICATION_TYPE": "U", "NORAD_CAT_ID": 29738, "ELEMENT_SET_NO": 999, "REV_AT_EPOCH": 86238, "BSTAR": 0.0031303581, "MEAN_MOTION_DOT": 2.349e-05, "MEAN_MOTION_DDOT": 0}, "tle": {"line1": "1 29738U 99025AC  25348.42104452  .00002349  00000+0  31304-2 0  9998", "line2": "2 29738  99.4091 155.0420 0864576 290.8391  60.2250 12.61044553862381"}}, "geometry": {"type": "Point", "coordinates": [153.73941382708205, 12.738664294731146]}}, {"type": "Feature", "properties": {"norad_id": 29740, "name": "FENGYUN 1C DEB", "group": "fengyun-1c-debris", "lat": -37.92465670515308, "lon": 13.110566716199356, "alt_km": 929.1058830634793, "timestamp": "2025-12-15T10:55:21.413781+00:00", "meta": {"OBJECT_NAME": "FENGYUN 1C DEB", "OBJECT_ID": "1999-025AE", "EPOCH": "2025-12-14T07:53:31.167744", "MEAN_MOTION": 12.08332038, "ECCENTRICITY": 0.09748555, "INCLINATION": 99.0448, "RA_OF_ASC_NODE": 199.4343, "ARG_OF_PERICENTER": 195.5379, "MEAN_ANOMALY": 161.366, "EPHEMERIS_TYPE": 0, "CLASSIFICATION_TYPE": "U", "NORAD_CAT_ID": 29740, "ELEMENT_SET_NO": 999, "REV_AT_EPOCH": 82954, "BSTAR": 0.0011847386, "MEAN_MOTION_DOT": 4.3e-06, "MEAN_MOTION_DDOT": 0}, "tle": {"line1": "1 29740U 99025AE  25348.32883296  .00000430  00000+0  11847-2 0  9999", "line2": "2 29740  99.0448 199.4343 0974855 195.5379 161.3660 12.08332038829549"}}, "geometry": {"type": "Point", "coordinates": [13.110566716199356, -37.92465670515308]}}, {"type": "Feature", "properties": {"norad_id": 29741, "name": "FENGYUN 1C DEB", "group": "fengyun-1c-debris", "lat": 4.102165422591165, "lon": -137.6463865496649, "alt_km": 1144.4284070162812, "timestamp": "2025-12-15T10:55:21.413802+00:00", "meta": {"OBJECT_NAME": "FENGYUN 1C DEB", "OBJECT_ID": "1999-025AF", "EPOCH": "2025-12-14T15:10:04.755936", "MEAN_MOTION": 12.00941321, "ECCENTRICITY": 0.10248151, "INCLINATION": 99.1748, "RA_OF_ASC_NODE": 222.4283, "ARG_OF_PERICENTER": 60.1951, "MEAN_ANOMALY": 356.1741, "EPHEMERIS_TYPE": 0, "CLASSIFICATION_TYPE": "U", "NORAD_CAT_ID": 29741, "ELEMENT_SET_NO": 999, "REV_AT_EPOCH": 52206, "BSTAR": 0.005713688, "MEAN_MOTION_DOT": 2.221e-05, "MEAN_MOTION_DDOT": 0}, "tle": {"line1": "1 29741U 99025AF  25348.63199949  .00002221  00000+0  57137-2 0  9991", "line2": "2 29741  99.1748 222.4283 1024815  60.1951 356.1741 12.00941321522064"}}, "geometry": {"type": "Point", "coordinates": [-137.6463865496649, 4.102165422591165]}}, {"type": "Feature", "properties": {"norad_id": 29748, "name": "FENGYUN 1C DEB", "group": "fengyun-1c-debris", "lat": -10.29603565458641, "lon": 97.87553277030733, "alt_km": 2416.4146591547224, "timestamp": "2025-12-15T10:55:21.413827+00:00", "meta": {"OBJECT_NAME": "FENGYUN 1C DEB", "OBJECT_ID": "1999-025AN", "EPOCH": "2025-12-13T17:30:42.767424", "MEAN_MOTION": 11.90122935, "ECCENTRICITY": 0.08522809, "INCLINATION": 99.7945, "RA_OF_ASC_NODE": 278.3912, "ARG_OF_PERICENTER": 8.906, "MEAN_ANOMALY": 352.6084, "EPHEMERIS_TYPE": 0, "CLASSIFICATION_TYPE": "U", "NORAD_CAT_ID": 29748, "ELEMENT_SET_NO": 999, "REV_AT_EPOCH": 78745, "BSTAR": 0.15573559, "MEAN_MOTION_DOT": 0.00030993, "MEAN_MOTION_DDOT": 0}, "tle": {"line1": "1 29748U 99025AN  25347.72966166  .00030993  00000+0  15574+0 0  9993", "line2": "2 29748  99.7945 278.3912 0852280   8.9060 352.6084 11.90122935787457"}}, "geometry": {"type": "Point", "coordinates": [97.87553277030733, -10.29603565458641]}}]}